NORAD_CAT_ID,OBJECT_NAME,OBJECT_TYPE,EPOCH,MEAN_MOTION,ECCENTRICITY,INCLINATION,RA_OF_ASC_NODE,ARG_OF_PERICENTER,MEAN_ANOMALY,BSTAR,MEAN_MOTION_DOT,MEAN_MOTION_DDOT,TLE_LINE0,TLE_LINE1,TLE_LINE2,SEMIMAJOR_AXIS,PERIOD,APOGEE,PERIGEE,DECAYED
53548.0,STARLINK-4513,PAYLOAD,2024-06-11 09:00:25,15.08847041,0.0001139,53.2175,40.6486,83.6739,276.4383,0.00016266,2.302e-05,0.0,0 STARLINK-4513,1 53548U 22101X   24163.37529829  .00002302  00000-0  16266-3 0  9993,2 53548  53.2175  40.6486 0001139  83.6739 276.4383 15.08847041100246,6917.859,95.437,540.512,538.936,0.0
53548.0,STARLINK-4513,PAYLOAD,2024-06-11 23:18:54,15.08843588,0.0001335,53.2183,37.9725,85.0271,275.0874,0.00010963,1.457e-05,0.0,0 STARLINK-4513,1 53548U 22101X   24163.97146188  .00001457  00000-0  10963-3 0  9990,2 53548  53.2183  37.9725 0001335  85.0271 275.0874 15.08843588100337,6917.869,95.437,540.658,538.811,0.0
53548.0,STARLINK-4513,PAYLOAD,2024-06-12 08:51:11,15.08859256,0.0001309,53.2183,36.1886,85.8103,274.3039,0.00019454,2.811e-05,0.0,0 STARLINK-4513,1 53548U 22101X   24164.36888772  .00002811  00000-0  19454-3 0  9995,2 53548  53.2183  36.1886 0001309  85.8103 274.3039 15.08859256100399,6917.822,95.436,540.592,538.781,0.0
53548.0,STARLINK-4513,PAYLOAD,2024-06-12 19:58:55,15.08828755,0.0001508,53.219,34.1096,82.1216,277.9947,-3.8658e-05,-9.03e-06,0.0,0 STARLINK-4513,1 53548U 22101X   24164.83258724 -.00000903  00000-0 -38658-4 0  9995,2 53548  53.2190  34.1096 0001508  82.1216 277.9947 15.08828755100469,6917.915,95.438,540.823,538.737,0.0
53548.0,STARLINK-4513,PAYLOAD,2024-06-12 21:34:18,15.08834576,0.0001636,53.2187,33.8086,88.6946,271.4234,-8.5232e-05,-1.644e-05,0.0,0 STARLINK-4513,1 53548U 22101X   24164.89882428 -.00001644  00000-0 -85232-4 0  9998,2 53548  53.2187  33.8086 0001636  88.6946 271.4234 15.08834576100470,6917.897,95.438,540.894,538.63,0.0
53548.0,STARLINK-4513,PAYLOAD,2024-06-13 08:41:59,15.08843931,0.000162,53.2187,31.7281,89.8912,270.2265,5.5968e-05,6.03e-06,0.0,0 STARLINK-4513,1 53548U 22101X   24165.36249975  .00000603  00000-0  55968-4 0  9990,2 53548  53.2187  31.7281 0001620  89.8912 270.2265 15.08843931100547,6917.868,95.437,540.854,538.613,0.0
53548.0,STARLINK-4513,PAYLOAD,2024-06-13 15:03:32,15.08837669,0.0001626,53.2182,30.5378,101.4007,258.7168,3.7739e-05,3.13e-06,0.0,0 STARLINK-4513,1 53548U 22101X   24165.62746396  .00000313  00000-0  37739-4 0  9992,2 53548  53.2182  30.5378 0001626 101.4007 258.7168 15.08837669100586,6917.888,95.438,540.877,538.628,0.0
53548.0,STARLINK-4513,PAYLOAD,2024-06-13 21:25:05,15.08841966,0.0001484,53.2179,29.3478,108.4495,251.6658,-9.7419e-08,-2.9e-06,0.0,0 STARLINK-4513,1 53548U 22101X   24165.89242134 -.00000290  00000-0 -97419-7 0  9992,2 53548  53.2179  29.3478 0001484 108.4495 251.6658 15.08841966100625,6917.874,95.437,540.766,538.713,0.0
53548.0,STARLINK-4513,PAYLOAD,2024-06-14 00:35:51,15.08843241,0.0001476,53.2181,28.7542,101.7483,258.3675,4.7669e-06,-2.12e-06,0.0,0 STARLINK-4513,1 53548U 22101X   24166.02490133 -.00000212  00000-0  47669-5 0  9995,2 53548  53.2181  28.7542 0001476 101.7483 258.3675 15.08843241100640,6917.87,95.437,540.757,538.714,0.0
53548.0,STARLINK-4513,PAYLOAD,2024-06-14 21:15:52,15.088354,0.0001363,53.2173,24.8907,91.579,268.5358,0.00022398,3.278e-05,0.0,0 STARLINK-4513,1 53548U 22101X   24166.88602720  .00003278  00000-0  22398-3 0  9990,2 53548  53.2173  24.8907 0001363  91.5790 268.5358 15.08835400100778,6917.894,95.438,540.702,538.817,0.0
53548.0,STARLINK-4513,PAYLOAD,2024-06-15 00:26:38,15.08842077,0.0001219,53.2164,24.2943,94.4716,265.6415,0.00015394,2.163e-05,0.0,0 STARLINK-4513,1 53548U 22101X   24167.01850334  .00002163  00000-0  15394-3 0  9992,2 53548  53.2164  24.2943 0001219  94.4716 265.6415 15.08842077100794,6917.874,95.437,540.582,538.896,0.0
53548.0,STARLINK-4513,PAYLOAD,2024-06-15 21:06:39,15.08840547,0.0001185,53.2172,20.4273,90.3652,269.7476,6.7835e-05,7.92e-06,0.0,0 STARLINK-4513,1 53548U 22101X   24167.87962579  .00000792  00000-0  67835-4 0  9995,2 53548  53.2172  20.4273 0001185  90.3652 269.7476 15.08840547100920,6917.879,95.438,540.563,538.924,0.0
53548.0,STARLINK-4513,PAYLOAD,2024-06-16 14:35:55,15.08822608,0.000102,53.2178,17.1551,75.8973,284.2132,-4.9332e-05,-1.072e-05,0.0,0 STARLINK-4513,1 53548U 22101X   24168.60828049 -.00001072  00000-0 -49332-4 0  9996,2 53548  53.2178  17.1551 0001020  75.8973 284.2132 15.08822608101032,6917.934,95.439,540.504,539.093,0.0
53548.0,STARLINK-4513,PAYLOAD,2024-06-16 20:57:27,15.08836102,0.0001348,53.2179,15.9708,91.7851,268.3295,3.2565e-05,2.3e-06,0.0,0 STARLINK-4513,1 53548U 22101X   24168.87323201  .00000230  00000-0  32565-4 0  9998,2 53548  53.2179  15.9708 0001348  91.7851 268.3295 15.08836102101079,6917.892,95.438,540.69,538.825,0.0
53548.0,STARLINK-4513,PAYLOAD,2024-06-17 20:48:14,15.08831579,0.0001498,53.2195,11.511,100.1215,259.9946,-2.3621e-05,-6.64e-06,0.0,0 STARLINK-4513,1 53548U 22101X   24169.86683415 -.00000664  00000-0 -23621-4 0  9990,2 53548  53.2195  11.5110 0001498 100.1215 259.9946 15.08831579101220,6917.906,95.438,540.807,538.735,0.0
53548.0,STARLINK-4513,PAYLOAD,2024-06-18 06:20:32,15.08843685,0.0001403,53.2199,9.725,94.3045,265.8108,9.3571e-05,1.202e-05,0.0,0 STARLINK-4513,1 53548U 22101X   24170.26426929  .00001202  00000-0  93571-4 0  9999,2 53548  53.2199   9.7250 0001403  94.3045 265.8108 15.08843685101282,6917.869,95.437,540.705,538.764,0.0
53548.0,STARLINK-4513,PAYLOAD,2024-06-18 22:14:24,15.08843357,0.000143,53.2165,6.75,86.61,273.5056,0.00017701,2.531e-05,0.0,0 STARLINK-4513,1 53548U 22101X   24170.92666929  .00002531  00000-0  17701-3 0  9994,2 53548  53.2165   6.7500 0001430  86.6100 273.5056 15.08843357101381,6917.87,95.437,540.724,538.746,0.0
53548.0,STARLINK-4513,PAYLOAD,2024-06-19 06:11:19,15.08855393,0.0001473,53.2177,5.2615,76.0238,284.0918,0.00024437,3.605e-05,0.0,0 STARLINK-4513,1 53548U 22101X   24171.25786205  .00003605  00000-0  24437-3 0  9998,2 53548  53.2177   5.2615 0001473  76.0238 284.0918 15.08855393101430,6917.833,95.437,540.717,538.679,0.0
53548.0,STARLINK-4513,PAYLOAD,2024-06-19 20:29:47,15.08845165,0.0001171,53.2176,2.586,82.8661,277.2465,0.00010508,1.385e-05,0.0,0 STARLINK-4513,1 53548U 22101X   24171.85402554  .00001385  00000-0  10508-3 0  9993,2 53548  53.2176   2.5860 0001171  82.8661 277.2465 15.08845165101528,6917.865,95.437,540.54,538.92,0.0
53548.0,STARLINK-4513,PAYLOAD,2024-06-20 06:02:06,15.08852151,0.0001232,53.2174,0.8033,82.4509,277.6623,0.00016459,2.333e-05,0.0,0 STARLINK-4513,1 53548U 22101X   24172.25146123  .00002333  00000-0  16459-3 0  9990,2 53548  53.2174   0.8033 0001232  82.4509 277.6623 15.08852151101583,6917.843,95.437,540.561,538.856,0.0
53548.0,STARLINK-4513,PAYLOAD,2024-06-20 21:55:58,15.08838979,0.0001397,53.2183,357.8279,89.7076,270.4076,-1.9124e-05,-5.92e-06,0.0,0 STARLINK-4513,1 53548U 22101X   24172.91386755 -.00000592  00000-0 -19124-4 0  9990,2 53548  53.2183 357.8279 0001397  89.7076 270.4076 15.08838979101687,6917.884,95.438,540.715,538.782,0.0
53548.0,STARLINK-4513,PAYLOAD,2024-06-21 12:14:26,15.08840308,0.0001155,53.2163,355.1517,94.7313,265.3811,0.00022527,3.299e-05,0.0,0 STARLINK-4513,1 53548U 22101X   24173.51002994  .00003299  00000-0  22527-3 0  9992,2 53548  53.2163 355.1517 0001155  94.7313 265.3811 15.08840308101772,6917.879,95.438,540.543,538.945,0.0
53548.0,STARLINK-4513,PAYLOAD,2024-06-21 18:35:59,15.0884145,0.0001183,53.2168,353.9624,94.6295,265.4832,0.00026795,3.979e-05,0.0,0 STARLINK-4513,1 53548U 22101X   24173.77499025  .00003979  00000-0  26795-3 0  9991,2 53548  53.2168 353.9624 0001183  94.6295 265.4832 15.08841450101819,6917.876,95.437,540.559,538.923,0.0
53548.0,STARLINK-4513,PAYLOAD,2024-06-22 12:05:13,15.08843209,0.0001188,53.2168,350.6913,95.7725,264.3403,0.0003211,4.827e-05,0.0,0 STARLINK-4513,1 53548U 22101X   24174.50363181  .00004827  00000-0  32110-3 0  9997,2 53548  53.2168 350.6913 0001188  95.7725 264.3403 15.08843209101927,6917.871,95.437,540.557,538.914,0.0
53548.0,STARLINK-4513,PAYLOAD,2024-06-22 18:26:46,15.08840513,0.0001162,53.2171,349.503,92.896,267.2165,0.00020033,2.902e-05,0.0,0 STARLINK-4513,1 53548U 22101X   24174.76859339  .00002902  00000-0  20033-3 0  9993,2 53548  53.2171 349.5030 0001162  92.8960 267.2165 15.08840513101965,6917.879,95.438,540.548,538.94,0.0
53548.0,STARLINK-4513,PAYLOAD,2024-06-23 11:56:00,15.08841704,0.0001255,53.2177,346.2324,113.1293,246.9831,0.00015081,2.113e-05,0.0,0 STARLINK-4513,1 53548U 22101X   24175.49723242  .00002113  00000-0  15081-3 0  9998,2 53548  53.2177 346.2324 0001255 113.1293 246.9831 15.08841704102070,6917.875,95.437,540.608,538.872,0.0
53548.0,STARLINK-4513,PAYLOAD,2024-06-23 18:17:33,15.08841914,0.0001198,53.2175,345.043,111.9552,248.1568,0.00012943,1.773e-05,0.0,0 STARLINK-4513,1 53548U 22101X   24175.76219213  .00001773  00000-0  12943-3 0  9991,2 53548  53.2175 345.0430 0001198 111.9552 248.1568 15.08841914102112,6917.875,95.437,540.568,538.911,0.0
53548.0,STARLINK-4513,PAYLOAD,2024-06-24 14:57:34,15.08834355,0.0001166,53.2171,341.175,105.595,254.5171,4.4775e-05,4.25e-06,0.0,0 STARLINK-4513,1 53548U 22101X   24176.62331696  .00000425  00000-0  44775-4 0  9999,2 53548  53.2171 341.1750 0001166 105.5950 254.5171 15.08834355102242,6917.898,95.438,540.569,538.956,0.0
53548.0,STARLINK-4513,PAYLOAD,2024-06-24 16:32:57,15.08833915,0.0001174,53.2173,340.8778,106.3762,253.7359,3.1764e-05,2.18e-06,0.0,0 STARLINK-4513,1 53548U 22101X   24176.68955724  .00000218  00000-0  31764-4 0  9993,2 53548  53.2173 340.8778 0001174 106.3762 253.7359 15.08833915102250,6917.899,95.438,540.576,538.952,0.0
53548.0,STARLINK-4513,PAYLOAD,2024-06-25 14:48:21,15.08835944,0.0001196,53.2178,336.714,88.7235,271.3894,3.8419e-05,3.24e-06,0.0,0 STARLINK-4513,1 53548U 22101X   24177.61691991  .00000324  00000-0  38419-4 0  9992,2 53548  53.2178 336.7140 0001196  88.7235 271.3894 15.08835944102393,6917.893,95.438,540.585,538.93,0.0
